OBJECT_NAME,OBJECT_ID,EPOCH,MEAN_MOTION,ECCENTRICITY,INCLINATION,RA_OF_ASC_NODE,ARG_OF_PERICENTER,MEAN_ANOMALY,EPHEMERIS_TYPE,CLASSIFICATION_TYPE,NORAD_CAT_ID,ELEMENT_SET_NO,REV_AT_EPOCH,BSTAR,MEAN_MOTION_DOT,MEAN_MOTION_DDOT
ASTRA 3B,2010-021A,2026-06-15T22:34:03.699840,1.00270343,.00041811,1.4667,83.5715,3.9407,178.7067,0,U,36581,999,5885,0,.137E-5,0
COMSATBW-2,2010-021B,2026-06-15T21:40:40.295424,1.00272070,.00025231,0.0427,63.4015,37.2524,141.8802,0,U,36582,999,5894,0,.89E-6,0
BEIDOU-2 G3,2010-024A,2026-06-15T18:34:21.571392,1.00271210,.00077324,4.5117,61.5199,351.6206,209.2054,0,U,36590,999,5875,0,-.138E-5,0
BADR-5,2010-025A,2026-06-15T13:12:21.333024,1.00268986,.00033969,0.0820,105.8501,88.1779,298.3462,0,U,36592,999,5320,0,.156E-5,0
COMS 1,2010-032A,2026-06-15T18:37:04.240992,0.99162489,.0011453,4.8015,75.3707,11.7747,175.2597,0,U,36744,999,5107,0,.38E-6,0
ARABSAT-5A,2010-032B,2026-06-15T20:02:58.281792,1.00273414,.00057662,0.0881,59.3285,44.5859,131.4264,0,U,36745,999,5863,0,.155E-5,0
ECHOSTAR 15,2010-034A,2026-06-15T09:21:26.053632,1.00272313,.00015705,0.0333,62.8089,31.3294,191.0934,0,U,36792,999,5830,0,.3E-7,0
BEIDOU-2 IGSO-1,2010-036A,2026-06-15T22:07:28.195104,1.00272283,.00592987,54.3019,162.9711,225.1772,315.5729,0,U,36828,999,5808,0,-.73E-6,0
NILESAT 201,2010-037A,2026-06-15T15:16:38.580096,1.00271918,.00044121,0.0465,120.8971,353.6614,11.5424,0,U,36830,999,5836,0,-.55E-6,0
RASCOM-QAF 1R,2010-037B,2026-06-15T19:55:06.536928,1.00272432,.00067809,0.0217,69.5902,10.5703,125.6215,0,U,36831,999,5829,0,.2E-6,0
AEHF-1 (USA 214),2010-039A,2026-06-15T20:02:50.794368,1.00273767,.00038326,8.2162,68.0681,7.6973,158.9977,0,U,36868,999,5364,0,.143E-5,0
XM-5,2010-053A,2026-06-15T00:23:38.718240,1.00271028,.00028901,0.0647,273.1886,289.1857,311.6507,0,U,37185,999,5746,0,-.18E-6,0
BSAT-3B,2010-056B,2026-06-15T22:13:06.336192,1.00269822,.0001598,0.0649,242.8851,304.2461,160.1995,0,U,37207,999,5208,0,-.349E-5,0
BEIDOU-2 G4,2010-057A,2026-06-15T15:31:59.641248,1.00270807,.00052541,3.6432,68.9596,196.2616,31.7093,0,U,37210,999,5727,0,-.113E-5,0
SKYTERRA 1,2010-061A,2026-06-15T16:00:04.449888,1.00271779,.00021961,5.1221,50.8593,6.9475,344.8183,0,U,37218,999,5717,0,-.12E-5,0
HYLAS 1,2010-065A,2026-06-15T21:40:55.271136,1.00271781,.00008432,5.6406,73.0349,316.6636,213.5073,0,U,37237,999,687,0,.86E-6,0
INTELSAT 17 (IS-17),2010-065B,2026-06-15T17:55:00.926400,1.00271373,.00025435,0.0085,286.8377,167.1937,144.7419,0,U,37238,999,5323,0,0,0
BEIDOU-2 IGSO-2,2010-068A,2026-06-15T20:29:59.130240,1.00282881,.0055907,47.5513,271.8488,212.6889,194.9404,0,U,37256,999,5678,0,-.214E-5,0
EUTELSAT KA-SAT 9A,2010-069A,2026-06-15T16:31:31.433664,1.00270646,.0003716,0.0609,10.9048,121.5904,28.3655,0,U,37258,999,4399,0,.63E-6,0
HISPASAT 30W-5,2010-070A,2026-06-15T19:45:44.409024,1.00272095,.00050645,0.0496,118.9861,344.4080,67.1428,0,U,37264,999,5317,0,-.215E-5,0
KOREASAT 6,2010-070B,2026-06-15T18:57:11.564352,1.00270739,.00020256,0.0180,11.5466,81.9137,254.7898,0,U,37265,999,5675,0,-.11E-5,0
BEIDOU-2 IGSO-3,2011-013A,2026-06-14T14:04:06.536928,1.00267759,.00343713,62.4034,40.1764,184.2029,357.3112,0,U,37384,999,5563,0,-.189E-5,0
INTELSAT 28 (IS-28),2011-016A,2026-06-15T19:45:14.456736,1.00269936,.00035882,1.8030,82.6363,6.3754,79.6845,0,U,37392,999,5327,0,-.225E-5,0
YAHSAT 1A,2011-016B,2026-06-16T00:01:31.553760,1.00269277,.00027205,0.0203,14.3883,84.2831,218.4736,0,U,37393,999,4239,0,0,0
SBIRS GEO-1 (USA 230),2011-019A,2026-06-16T00:00:48.513600,1.00272316,.00020871,4.5335,53.1279,24.4412,238.7087,0,U,37481,999,5538,0,.97E-6,0
TELSTAR 14R,2011-021A,2026-06-15T19:36:22.807296,1.00271059,.00021459,0.0165,14.7297,40.2997,80.1536,0,U,37602,999,5582,0,-.279E-5,0
GSAT-8,2011-022A,2026-06-15T16:44:37.423104,1.00273015,.00023487,2.1275,81.8403,203.1364,285.2398,0,U,37605,999,5320,0,.85E-6,0
ST-2,2011-022B,2026-06-15T20:19:21.066240,1.00270588,.00015859,0.0224,19.1890,77.3379,200.4498,0,U,37606,999,5526,0,0,0
ZHONGXING-10,2011-026A,2026-06-15T22:01:21.281088,1.00268351,.00031934,1.0427,84.2053,4.3224,231.4818,0,U,37677,999,5498,0,-.187E-5,0
SES-3,2011-035A,2026-06-15T14:38:07.305792,1.00271239,.00022107,1.3230,83.0995,352.6166,304.7078,0,U,37748,999,5457,0,-.101E-5,0
KAZSAT-2,2011-035B,2026-06-15T20:18:58.601376,1.00272152,.00011303,0.0314,236.5472,282.6057,136.2338,0,U,37749,999,5338,0,-.197E-5,0
BEIDOU-2 IGSO-4,2011-038A,2026-06-15T20:51:21.962016,1.00285205,.01595433,54.5998,165.6847,231.3979,273.2630,0,U,37763,999,5463,0,.29E-6,0
