ASTRA 3B                
1 36581U 10021A   26166.94032060  .00000137  00000+0  00000+0 0  9991
2 36581   1.4667  83.5715 0004181   3.9407 178.7067  1.00270343 58857
COMSATBW-2              
1 36582U 10021B   26166.90324416  .00000089  00000+0  00000+0 0  9993
2 36582   0.0427  63.4015 0002523  37.2524 141.8802  1.00272070 58942
BEIDOU-2 G3             
1 36590U 10024A   26166.77386078 -.00000138  00000+0  00000+0 0  9998
2 36590   4.5117  61.5199 0007732 351.6206 209.2054  1.00271210 58757
BADR-5                  
1 36592U 10025A   26166.55024691  .00000156  00000+0  00000+0 0  9996
2 36592   0.0820 105.8501 0003396  88.1779 298.3462  1.00268986 53202
COMS 1                  
1 36744U 10032A   26166.77574353  .00000038  00000+0  00000+0 0  9991
2 36744   4.8015  75.3707 0011453  11.7747 175.2597  0.99162489 51071
ARABSAT-5A              
1 36745U 10032B   26166.83539678  .00000155  00000+0  00000+0 0  9990
2 36745   0.0881  59.3285 0005766  44.5859 131.4264  1.00273414 58630
ECHOSTAR 15             
1 36792U 10034A   26166.38988488  .00000003  00000+0  00000+0 0  9993
2 36792   0.0333  62.8089 0001570  31.3294 191.0934  1.00272313 58308
BEIDOU-2 IGSO-1         
1 36828U 10036A   26166.92185411 -.00000073  00000+0  00000+0 0  9998
2 36828  54.3019 162.9711 0059298 225.1772 315.5729  1.00272283 58085
NILESAT 201             
1 36830U 10037A   26166.63655764 -.00000055  00000+0  00000+0 0  9993
2 36830   0.0465 120.8971 0004412 353.6614  11.5424  1.00271918 58362
RASCOM-QAF 1R           
1 36831U 10037B   26166.82993677  .00000020  00000+0  00000+0 0  9994
2 36831   0.0217  69.5902 0006780  10.5703 125.6215  1.00272432 58298
AEHF-1 (USA 214)        
1 36868U 10039A   26166.83531012  .00000143  00000+0  00000+0 0  9994
2 36868   8.2162  68.0681 0003832   7.6973 158.9977  1.00273767 53646
XM-5                    
1 37185U 10053A   26166.01642035 -.00000018  00000+0  00000+0 0  9993
2 37185   0.0647 273.1886 0002890 289.1857 311.6507  1.00271028 57463
BSAT-3B                 
1 37207U 10056B   26166.92576778 -.00000349  00000+0  00000+0 0  9998
2 37207   0.0649 242.8851 0001598 304.2461 160.1995  1.00269822 52089
BEIDOU-2 G4             
1 37210U 10057A   26166.64721807 -.00000113  00000+0  00000+0 0  9996
2 37210   3.6432  68.9596 0005254 196.2616  31.7093  1.00270807 57272
SKYTERRA 1              
1 37218U 10061A   26166.66671817 -.00000120  00000+0  00000+0 0  9994
2 37218   5.1221  50.8593 0002196   6.9475 344.8183  1.00271779 57178
HYLAS 1                 
1 37237U 10065A   26166.90341749  .00000086  00000+0  00000+0 0  9994
2 37237   5.6406  73.0349 0000843 316.6636 213.5073  1.00271781  6876
INTELSAT 17 (IS-17)     
1 37238U 10065B   26166.74653850  .00000000  00000+0  00000+0 0  9992
2 37238   0.0085 286.8377 0002543 167.1937 144.7419  1.00271373 53234
BEIDOU-2 IGSO-2         
1 37256U 10068A   26166.85415660 -.00000214  00000+0  00000+0 0  9990
2 37256  47.5513 271.8488 0055907 212.6889 194.9404  1.00282881 56787
EUTELSAT KA-SAT 9A      
1 37258U 10069A   26166.68855826  .00000063  00000+0  00000+0 0  9997
2 37258   0.0609  10.9048 0003716 121.5904  28.3655  1.00270646 43993
HISPASAT 30W-5          
1 37264U 10070A   26166.82343066 -.00000215  00000+0  00000+0 0  9990
2 37264   0.0496 118.9861 0005064 344.4080  67.1428  1.00272095 53175
KOREASAT 6              
1 37265U 10070B   26166.78971718 -.00000110  00000+0  00000+0 0  9991
2 37265   0.0180  11.5466 0002025  81.9137 254.7898  1.00270739 56750
BEIDOU-2 IGSO-3         
1 37384U 11013A   26165.58618677 -.00000189  00000+0  00000+0 0  9996
2 37384  62.4034  40.1764 0034371 184.2029 357.3112  1.00267759 55630
INTELSAT 28 (IS-28)     
1 37392U 11016A   26166.82308399 -.00000225  00000+0  00000+0 0  9994
2 37392   1.8030  82.6363 0003588   6.3754  79.6845  1.00269936 53277
YAHSAT 1A               
1 37393U 11016B   26167.00105965  .00000000  00000+0  00000+0 0  9990
2 37393   0.0203  14.3883 0002720  84.2831 218.4736  1.00269277 42399
SBIRS GEO-1 (USA 230)   
1 37481U 11019A   26167.00056150  .00000097  00000+0  00000+0 0  9998
2 37481   4.5335  53.1279 0002087  24.4412 238.7087  1.00272316 55384
TELSTAR 14R             
1 37602U 11021A   26166.81693064 -.00000279  00000+0  00000+0 0  9998
2 37602   0.0165  14.7297 0002145  40.2997  80.1536  1.00271059 55823
GSAT-8                  
1 37605U 11022A   26166.69765536  .00000085  00000+0  00000+0 0  9996
2 37605   2.1275  81.8403 0002348 203.1364 285.2398  1.00273015 53206
ST-2                    
1 37606U 11022B   26166.84677160  .00000000  00000+0  00000+0 0  9996
2 37606   0.0224  19.1890 0001585  77.3379 200.4498  1.00270588 55261
ZHONGXING-10            
1 37677U 11026A   26166.91760742 -.00000187  00000+0  00000+0 0  9992
2 37677   1.0427  84.2053 0003193   4.3224 231.4818  1.00268351 54988
SES-3                   
1 37748U 11035A   26166.60980678 -.00000101  00000+0  00000+0 0  9995
2 37748   1.3230  83.0995 0002210 352.6166 304.7078  1.00271239 54573
KAZSAT-2                
1 37749U 11035B   26166.84651159 -.00000197  00000+0  00000+0 0  9996
2 37749   0.0314 236.5472 0001130 282.6057 136.2338  1.00272152 53389
BEIDOU-2 IGSO-4         
1 37763U 11038A   26166.86900419  .00000029  00000+0  00000+0 0  9996
2 37763  54.5998 165.6847 0159543 231.3979 273.2630  1.00285205 54630
